start=new Date('2022-03-12T00:00:00.000Z').valueOf();
sats=[{"MEAN_MOTION":"15.06423096","TLE_LINE1":"1 47750U 21017AE  22070.88436335  .00010271  00000-0  70697-3 0  9998","MEAN_MOTION_DOT":"0.00010271","LAUNCH_DATE":"2021-03-04","PERIAPSIS":"545.947","SEMIMAJOR_AXIS":"6925.278","INCLINATION":"53.0533","REF_FRAME":"TEME","RA_OF_ASC_NODE":"270.4632","SITE":"AFETR","APOAPSIS":"548.339","CENTER_NAME":"EARTH","GP_ID":"198519195","TLE_LINE2":"2 47750  53.0533 270.4632 0001727  69.2220 290.8954 15.06423096 57999","PERIOD":"95.591","BSTAR":"0.00070697000000","OBJECT_NAME":"STARLINK-2164","FILE":"3355378","MEAN_ANOMALY":"290.8954","OBJECT_ID":"2021-017AE","OBJECT_TYPE":"PAYLOAD","ECCENTRICITY":"0.00017270","CLASSIFICATION_TYPE":"U","ELEMENT_SET_NO":"999","REV_AT_EPOCH":"5799","MEAN_MOTION_DDOT":"0.0000000000000","RCS_SIZE":"LARGE","MEAN_ELEMENT_THEORY":"SGP4","EPHEMERIS_TYPE":"0","EPOCH":"2022-03-11T21:13:28.993440","DECAY_DATE":null,"NORAD_CAT_ID":"47750","ARG_OF_PERICENTER":"69.2220","TIME_SYSTEM":"UTC","COUNTRY_CODE":"US"},{"TIME_SYSTEM":"UTC","ARG_OF_PERICENTER":"59.7827","COUNTRY_CODE":"US","NORAD_CAT_ID":"47751","DECAY_DATE":null,"EPOCH":"2022-03-11T20:21:42.808032","EPHEMERIS_TYPE":"0","RCS_SIZE":"LARGE","MEAN_ELEMENT_THEORY":"SGP4","MEAN_MOTION_DDOT":"0.0000000000000","REV_AT_EPOCH":"5813","ELEMENT_SET_NO":"999","CLASSIFICATION_TYPE":"U","ECCENTRICITY":"0.00017430","OBJECT_TYPE":"PAYLOAD","OBJECT_ID":"2021-017AF","FILE":"3355378","OBJECT_NAME":"STARLINK-2168","MEAN_ANOMALY":"300.3334","CENTER_NAME":"EARTH","GP_ID":"198519945","TLE_LINE2":"2 47751  53.0544 260.5989 0001743  59.7827 300.3334 15.06399406 58135","BSTAR":"0.00026969000000","PERIOD":"95.592","APOAPSIS":"548.422","SITE":"AFETR","INCLINATION":"53.0544","REF_FRAME":"TEME","RA_OF_ASC_NODE":"260.5989","PERIAPSIS":"546.008","SEMIMAJOR_AXIS":"6925.350","MEAN_MOTION_DOT":"0.00003738","LAUNCH_DATE":"2021-03-04","MEAN_MOTION":"15.06399406","TLE_LINE1":"1 47751U 21017AF  22070.84841213  .00003738  00000-0  26969-3 0  9993"},{"INCLINATION":"53.0527","REF_FRAME":"TEME","RA_OF_ASC_NODE":"275.4714","SITE":"AFETR","CENTER_NAME":"EARTH","GP_ID":"198518194","TLE_LINE2":"2 47752  53.0527 275.4714 0001683  66.2215 293.8951 15.06407566 57974","BSTAR":"0.00011233000000","PERIOD":"95.592","APOAPSIS":"548.356","OBJECT_ID":"2021-017AG","FILE":"3355378","OBJECT_NAME":"STARLINK-2169","MEAN_ANOMALY":"293.8951","MEAN_MOTION":"15.06407566","TLE_LINE1":"1 47752U 21017AG  22070.88204382  .00001392  00000-0  11233-3 0  9990","MEAN_MOTION_DOT":"0.00001392","LAUNCH_DATE":"2021-03-04","SEMIMAJOR_AXIS":"6925.325","PERIAPSIS":"546.025","EPOCH":"2022-03-11T21:10:08.586048","EPHEMERIS_TYPE":"0","DECAY_DATE":null,"ARG_OF_PERICENTER":"66.2215","TIME_SYSTEM":"UTC","COUNTRY_CODE":"US","NORAD_CAT_ID":"47752","ECCENTRICITY":"0.00016830","OBJECT_TYPE":"PAYLOAD","ELEMENT_SET_NO":"999","CLASSIFICATION_TYPE":"U","MEAN_MOTION_DDOT":"0.0000000000000","REV_AT_EPOCH":"5797","RCS_SIZE":"LARGE","MEAN_ELEMENT_THEORY":"SGP4"},{"SITE":"AFETR","INCLINATION":"53.0557","REF_FRAME":"TEME","RA_OF_ASC_NODE":"280.5724","FILE":"3355378","OBJECT_NAME":"STARLINK-2170","MEAN_ANOMALY":"297.6782","OBJECT_ID":"2021-017AH","APOAPSIS":"548.332","CENTER_NAME":"EARTH","GP_ID":"198518444","TLE_LINE2":"2 47753  53.0557 280.5724 0001660  62.4375 297.6782 15.06410040 57892","BSTAR":"0.00014961000000","PERIOD":"95.592","TLE_LINE1":"1 47753U 21017AH  22070.85762638  .00001948  00000-0  14961-3 0  9999","MEAN_MOTION":"15.06410040","PERIAPSIS":"546.033","SEMIMAJOR_AXIS":"6925.318","MEAN_MOTION_DOT":"0.00001948","LAUNCH_DATE":"2021-03-04","DECAY_DATE":null,"EPHEMERIS_TYPE":"0","EPOCH":"2022-03-11T20:34:58.919232","NORAD_CAT_ID":"47753","ARG_OF_PERICENTER":"62.4375","TIME_SYSTEM":"UTC","COUNTRY_CODE":"US","CLASSIFICATION_TYPE":"U","ELEMENT_SET_NO":"999","OBJECT_TYPE":"PAYLOAD","ECCENTRICITY":"0.00016600","MEAN_ELEMENT_THEORY":"SGP4","RCS_SIZE":"LARGE","REV_AT_EPOCH":"5789","MEAN_MOTION_DDOT":"0.0000000000000"},{"INCLINATION":"53.0550","REF_FRAME":"TEME","RA_OF_ASC_NODE":"280.4152","SITE":"AFETR","GP_ID":"198519695","CENTER_NAME":"EARTH","TLE_LINE2":"2 47754  53.0550 280.4152 0001873  63.5419 296.5762 15.06413900 57868","PERIOD":"95.591","BSTAR":"0.00036989000000","APOAPSIS":"548.468","OBJECT_ID":"2021-017AJ","OBJECT_NAME":"STARLINK-2171","FILE":"3355378","MEAN_ANOMALY":"296.5762","MEAN_MOTION":"15.06413900","TLE_LINE1":"1 47754U 21017AJ  22070.89448067  .00005234  00000-0  36989-3 0  9997","MEAN_MOTION_DOT":"0.00005234","LAUNCH_DATE":"2021-03-04","SEMIMAJOR_AXIS":"6925.306","PERIAPSIS":"545.874","EPOCH":"2022-03-11T21:28:03.129888","EPHEMERIS_TYPE":"0","DECAY_DATE":null,"TIME_SYSTEM":"UTC","ARG_OF_PERICENTER":"63.5419","COUNTRY_CODE":"US","NORAD_CAT_ID":"47754","ECCENTRICITY":"0.00018730","OBJECT_TYPE":"PAYLOAD","ELEMENT_SET_NO":"999","CLASSIFICATION_TYPE":"U","MEAN_MOTION_DDOT":"0.0000000000000","REV_AT_EPOCH":"5786","MEAN_ELEMENT_THEORY":"SGP4","RCS_SIZE":"LARGE"},{"TLE_LINE2":"2 47755  53.0498 253.6185 0001828  17.2548 342.8528 15.64373043 58220","PERIOD":"92.050","BSTAR":"0.00408290000000","CENTER_NAME":"EARTH","GP_ID":"198519446","APOAPSIS":"376.279","OBJECT_ID":"2021-017AK","MEAN_ANOMALY":"342.8528","OBJECT_NAME":"STARLINK-2172","FILE":"3355378","REF_FRAME":"TEME","RA_OF_ASC_NODE":"253.6185","INCLINATION":"53.0498","SITE":"AFETR","LAUNCH_DATE":"2021-03-04","MEAN_MOTION_DOT":"0.00419051","PERIAPSIS":"373.810","SEMIMAJOR_AXIS":"6753.179","TLE_LINE1":"1 47755U 21017AK  22070.77580982  .00419051  00000-0  40829-2 0  9991","MEAN_MOTION":"15.64373043","COUNTRY_CODE":"US","TIME_SYSTEM":"UTC","ARG_OF_PERICENTER":"17.2548","NORAD_CAT_ID":"47755","EPOCH":"2022-03-11T18:37:09.968448","EPHEMERIS_TYPE":"0","DECAY_DATE":null,"MEAN_MOTION_DDOT":"0.0000000000000","REV_AT_EPOCH":"5822","RCS_SIZE":"LARGE","MEAN_ELEMENT_THEORY":"SGP4","ECCENTRICITY":"0.00018280","OBJECT_TYPE":"PAYLOAD","ELEMENT_SET_NO":"999","CLASSIFICATION_TYPE":"U"},{"ECCENTRICITY":"0.00015370","OBJECT_TYPE":"PAYLOAD","ELEMENT_SET_NO":"999","CLASSIFICATION_TYPE":"U","MEAN_MOTION_DDOT":"0.0000000000000","REV_AT_EPOCH":"5790","MEAN_ELEMENT_THEORY":"SGP4","RCS_SIZE":"LARGE","EPOCH":"2022-03-11T21:22:46.701120","EPHEMERIS_TYPE":"0","DECAY_DATE":null,"ARG_OF_PERICENTER":"68.8621","TIME_SYSTEM":"UTC","COUNTRY_CODE":"US","NORAD_CAT_ID":"47756","TLE_LINE1":"1 47756U 21017AL  22070.89081830  .00009042  00000-0  62480-3 0  9996","MEAN_MOTION":"15.06420089","MEAN_MOTION_DOT":"0.00009042","LAUNCH_DATE":"2021-03-04","PERIAPSIS":"546.088","SEMIMAJOR_AXIS":"6925.287","INCLINATION":"53.0526","RA_OF_ASC_NODE":"280.4332","REF_FRAME":"TEME","SITE":"AFETR","GP_ID":"198518694","CENTER_NAME":"EARTH","TLE_LINE2":"2 47756  53.0526 280.4332 0001537  68.8621 291.2532 15.06420089 57901","BSTAR":"0.00062480000000","PERIOD":"95.591","APOAPSIS":"548.216","OBJECT_ID":"2021-017AL","FILE":"3355378","OBJECT_NAME":"STARLINK-2174","MEAN_ANOMALY":"291.2532"},{"NORAD_CAT_ID":"47757","TIME_SYSTEM":"UTC","ARG_OF_PERICENTER":"62.5977","COUNTRY_CODE":"US","DECAY_DATE":null,"EPHEMERIS_TYPE":"0","EPOCH":"2022-03-11T21:01:31.400832","RCS_SIZE":"LARGE","MEAN_ELEMENT_THEORY":"SGP4","REV_AT_EPOCH":"5784","MEAN_MOTION_DDOT":"0.0000000000000","CLASSIFICATION_TYPE":"U","ELEMENT_SET_NO":"999","OBJECT_TYPE":"PAYLOAD","ECCENTRICITY":"0.00019320","FILE":"3355378","OBJECT_NAME":"STARLINK-2175","MEAN_ANOMALY":"297.5209","OBJECT_ID":"2021-017AM","APOAPSIS":"548.497","GP_ID":"198518944","CENTER_NAME":"EARTH","BSTAR":"0.00037385000000","TLE_LINE2":"2 47757  53.0538 280.5021 0001932  62.5977 297.5209 15.06417656 57844","PERIOD":"95.591","SITE":"AFETR","INCLINATION":"53.0538","RA_OF_ASC_NODE":"280.5021","REF_FRAME":"TEME","PERIAPSIS":"545.821","SEMIMAJOR_AXIS":"6925.294","MEAN_MOTION_DOT":"0.00005294","LAUNCH_DATE":"2021-03-04","TLE_LINE1":"1 47757U 21017AM  22070.87605788  .00005294  00000-0  37385-3 0  9990","MEAN_MOTION":"15.06417656"},{"DECAY_DATE":null,"EPOCH":"2022-03-11T21:58:57.376704","EPHEMERIS_TYPE":"0","ARG_OF_PERICENTER":"45.0807","TIME_SYSTEM":"UTC","COUNTRY_CODE":"US","NORAD_CAT_ID":"47758","ELEMENT_SET_NO":"999","CLASSIFICATION_TYPE":"U","ECCENTRICITY":"0.00017590","OBJECT_TYPE":"PAYLOAD","MEAN_ELEMENT_THEORY":"SGP4","RCS_SIZE":"LARGE","MEAN_MOTION_DDOT":"0.0000000000000","REV_AT_EPOCH":"5821","SITE":"AFETR","INCLINATION":"53.0580","RA_OF_ASC_NODE":"258.7791","REF_FRAME":"TEME","OBJECT_ID":"2021-017AN","OBJECT_NAME":"STARLINK-2176","FILE":"3355378","MEAN_ANOMALY":"315.0352","GP_ID":"198519196","CENTER_NAME":"EARTH","PERIOD":"91.781","TLE_LINE2":"2 47758  53.0580 258.7791 0001759  45.0807 315.0352 15.68950649 58217","BSTAR":"0.00481480000000","APOAPSIS":"363.088","MEAN_MOTION":"15.68950649","TLE_LINE1":"1 47758U 21017AN  22070.91594186  .00608321  00000-0  48148-2 0  9993","PERIAPSIS":"360.717","SEMIMAJOR_AXIS":"6740.038","MEAN_MOTION_DOT":"0.00608321","LAUNCH_DATE":"2021-03-04"},{"EPOCH":"2022-03-11T21:52:50.478240","EPHEMERIS_TYPE":"0","DECAY_DATE":null,"COUNTRY_CODE":"US","TIME_SYSTEM":"UTC","ARG_OF_PERICENTER":"324.0362","NORAD_CAT_ID":"47759","ECCENTRICITY":"0.00113570","OBJECT_TYPE":"PAYLOAD","ELEMENT_SET_NO":"999","CLASSIFICATION_TYPE":"U","MEAN_MOTION_DDOT":"0.0175720000000","REV_AT_EPOCH":"5900","RCS_SIZE":"LARGE","MEAN_ELEMENT_THEORY":"SGP4","REF_FRAME":"TEME","RA_OF_ASC_NODE":"201.2036","INCLINATION":"53.0401","SITE":"AFETR","BSTAR":"0.00489580000000","TLE_LINE2":"2 47759  53.0401 201.2036 0011357 324.0362  35.9905 16.07701976 59007","PERIOD":"89.569","GP_ID":"198519946","CENTER_NAME":"EARTH","APOAPSIS":"260.688","OBJECT_ID":"2021-017AP","MEAN_ANOMALY":"35.9905","FILE":"3355378","OBJECT_NAME":"STARLINK-2177","TLE_LINE1":"1 47759U 21017AP  22070.91169535  .03390316  17572-1  48958-2 0  9997","MEAN_MOTION":"16.07701976","LAUNCH_DATE":"2021-03-04","MEAN_MOTION_DOT":"0.03390316","SEMIMAJOR_AXIS":"6631.292","PERIAPSIS":"245.626"}];
